{
  "type": "FeatureCollection",
  "features": [
    {
      "type": "Feature",
      "properties": {
        "norad_id": 66174,
        "name": "HTV-X1",
        "group": "stations",
        "lat": 19.44807867447024,
        "lon": 98.68449230635416,
        "alt_km": 415.17658900689366,
        "timestamp": "2025-12-24T20:42:19.779251+00:00",
        "meta_object_name": "HTV-X1",
        "meta_object_id": "2025-241A",
        "meta_epoch": "2025-12-24T05:07:18.077088",
        "meta_mean_motion": 15.49773492,
        "meta_eccentricity": 0.00031703,
        "meta_inclination": 51.6319,
        "meta_ra_of_asc_node": 85.6574,
        "meta_arg_of_pericenter": 294.284,
        "meta_mean_anomaly": 65.7818,
        "meta_ephemeris_type": 0,
        "meta_classification_type": "U",
        "meta_norad_cat_id": 66174,
        "meta_element_set_no": 999,
        "meta_rev_at_epoch": 51,
        "meta_bstar": 0.00022737508,
        "meta_mean_motion_dot": 0.0001244,
        "meta_mean_motion_ddot": 0,
        "tle_line1": "1 66174U 25241A   25358.21340367  .00012440  00000+0  22738-3 0  9992",
        "tle_line2": "2 66174  51.6319  85.6574 0003170 294.2840  65.7818 15.49773492   518"
      },
      "geometry": {
        "type": "Point",
        "coordinates": [
          98.68449230635416,
          19.44807867447024
        ]
      }
    },
    {
      "type": "Feature",
      "properties": {
        "norad_id": 66515,
        "name": "SZ-21 MODULE",
        "group": "stations",
        "lat": -33.70559451189312,
        "lon": -106.97679300911969,
        "alt_km": 378.43219319273794,
        "timestamp": "2025-12-24T20:42:19.779261+00:00",
        "meta_object_name": "SZ-21 MODULE",
        "meta_object_id": "2025-246C",
        "meta_epoch": "2025-12-24T05:36:50.034816",
        "meta_mean_motion": 15.63078368,
        "meta_eccentricity": 0.00048386,
        "meta_inclination": 41.477,
        "meta_ra_of_asc_node": 305.9006,
        "meta_arg_of_pericenter": 322.6697,
        "meta_mean_anomaly": 37.3806,
        "meta_ephemeris_type": 0,
        "meta_classification_type": "U",
        "meta_norad_cat_id": 66515,
        "meta_element_set_no": 999,
        "meta_rev_at_epoch": 624,
        "meta_bstar": 0.00031978683,
        "meta_mean_motion_dot": 0.00029746,
        "meta_mean_motion_ddot": 0,
        "tle_line1": "1 66515U 25246C   25358.23391244  .00029746  00000+0  31979-3 0  9992",
        "tle_line2": "2 66515  41.4770 305.9006 0004838 322.6697  37.3806 15.63078368  6245"
      },
      "geometry": {
        "type": "Point",
        "coordinates": [
          -106.97679300911969,
          -33.70559451189312
        ]
      }
    },
    {
      "type": "Feature",
      "properties": {
        "norad_id": 66645,
        "name": "SHENZHOU-22",
        "group": "stations",
        "lat": -37.740279150328455,
        "lon": -175.70161276329483,
        "alt_km": 393.5226488467961,
        "timestamp": "2025-12-24T20:42:19.779271+00:00",
        "meta_object_name": "SHENZHOU-22",
        "meta_object_id": "2025-272A",
        "meta_epoch": "2025-12-24T05:49:05.894976",
        "meta_mean_motion": 15.59630763,
        "meta_eccentricity": 0.00081096,
        "meta_inclination": 41.4687,
        "meta_ra_of_asc_node": 306.8504,
        "meta_arg_of_pericenter": 132.6319,
        "meta_mean_anomaly": 227.5205,
        "meta_ephemeris_type": 0,
        "meta_classification_type": "U",
        "meta_norad_cat_id": 66645,
        "meta_element_set_no": 999,
        "meta_rev_at_epoch": 26550,
        "meta_bstar": 0.00022952509,
        "meta_mean_motion_dot": 0.00018555,
        "meta_mean_motion_ddot": 0,
        "tle_line1": "1 66645U 25272A   25358.24242934  .00018555  00000+0  22953-3 0  9995",
        "tle_line2": "2 66645  41.4687 306.8504 0008109 132.6319 227.5205 15.59630763265504"
      },
      "geometry": {
        "type": "Point",
        "coordinates": [
          -175.70161276329483,
          -37.740279150328455
        ]
      }
    },
    {
      "type": "Feature",
      "properties": {
        "norad_id": 66664,
        "name": "SOYUZ-MS 28",
        "group": "stations",
        "lat": 19.44808008582657,
        "lon": 98.68449361454394,
        "alt_km": 415.17658885350374,
        "timestamp": "2025-12-24T20:42:19.779280+00:00",
        "meta_object_name": "SOYUZ-MS 28",
        "meta_object_id": "2025-275A",
        "meta_epoch": "2025-12-24T05:07:18.077088",
        "meta_mean_motion": 15.49773492,
        "meta_eccentricity": 0.00031703,
        "meta_inclination": 51.6319,
        "meta_ra_of_asc_node": 85.6574,
        "meta_arg_of_pericenter": 294.284,
        "meta_mean_anomaly": 65.7818,
        "meta_ephemeris_type": 0,
        "meta_classification_type": "U",
        "meta_norad_cat_id": 66664,
        "meta_element_set_no": 999,
        "meta_rev_at_epoch": 128,
        "meta_bstar": 0.00022737508,
        "meta_mean_motion_dot": 0.0001244,
        "meta_mean_motion_ddot": 0,
        "tle_line1": "1 66664U 25275A   25358.21340367  .00012440  00000+0  22738-3 0  9993",
        "tle_line2": "2 66664  51.6319  85.6574 0003170 294.2840  65.7818 15.49773492  1287"
      },
      "geometry": {
        "type": "Point",
        "coordinates": [
          98.68449361454394,
          19.44808008582657
        ]
      }
    },
    {
      "type": "Feature",
      "properties": {
        "norad_id": 66906,
        "name": "1998-067XS",
        "group": "stations",
        "lat": 48.07398743770848,
        "lon": -159.64022567222216,
        "alt_km": 408.27958604045034,
        "timestamp": "2025-12-24T20:42:19.779290+00:00",
        "meta_object_name": "1998-067XS",
        "meta_object_id": "1998-067XS",
        "meta_epoch": "2025-12-23T13:19:00.111360",
        "meta_mean_motion": 15.51136039,
        "meta_eccentricity": 0.00028154,
        "meta_inclination": 51.6316,
        "meta_ra_of_asc_node": 88.7613,
        "meta_arg_of_pericenter": 256.8779,
        "meta_mean_anomaly": 103.1896,
        "meta_ephemeris_type": 0,
        "meta_classification_type": "U",
        "meta_norad_cat_id": 66906,
        "meta_element_set_no": 999,
        "meta_rev_at_epoch": 329,
        "meta_bstar": 0.00048512679,
        "meta_mean_motion_dot": 0.0002847,
        "meta_mean_motion_ddot": 0,
        "tle_line1": "1 66906U 98067XS  25357.55486240  .00028470  00000+0  48513-3 0  9997",
        "tle_line2": "2 66906  51.6316  88.7613 0002815 256.8779 103.1896 15.51136039  3290"
      },
      "geometry": {
        "type": "Point",
        "coordinates": [
          -159.64022567222216,
          48.07398743770848
        ]
      }
    },
    {
      "type": "Feature",
      "properties": {
        "norad_id": 66907,
        "name": "1998-067XT",
        "group": "stations",
        "lat": -0.24000230324616634,
        "lon": -97.69392665008097,
        "alt_km": 410.12953865145664,
        "timestamp": "2025-12-24T20:42:19.779300+00:00",
        "meta_object_name": "1998-067XT",
        "meta_object_id": "1998-067XT",
        "meta_epoch": "2025-12-23T11:29:49.841376",
        "meta_mean_motion": 15.52745506,
        "meta_eccentricity": 0.0003882,
        "meta_inclination": 51.6313,
        "meta_ra_of_asc_node": 89.0045,
        "meta_arg_of_pericenter": 291.7662,
        "meta_mean_anomaly": 68.2915,
        "meta_ephemeris_type": 0,
        "meta_classification_type": "U",
        "meta_norad_cat_id": 66907,
        "meta_element_set_no": 999,
        "meta_rev_at_epoch": 328,
        "meta_bstar": 0.0010348952,
        "meta_mean_motion_dot": 0.00065231,
        "meta_mean_motion_ddot": 0,
        "tle_line1": "1 66907U 98067XT  25357.47904909  .00065231  00000+0  10349-2 0  9997",
        "tle_line2": "2 66907  51.6313  89.0045 0003882 291.7662  68.2915 15.52745506  3283"
      },
      "geometry": {
        "type": "Point",
        "coordinates": [
          -97.69392665008097,
          -0.24000230324616634
        ]
      }
    },
    {
      "type": "Feature",
      "properties": {
        "norad_id": 66908,
        "name": "1998-067XU",
        "group": "stations",
        "lat": -4.9281180090089345,
        "lon": -93.97976952040297,
        "alt_km": 410.1208587874589,
        "timestamp": "2025-12-24T20:42:19.779310+00:00",
        "meta_object_name": "1998-067XU",
        "meta_object_id": "1998-067XU",
        "meta_epoch": "2025-12-23T11:28:24.726144",
        "meta_mean_motion": 15.52842233,
        "meta_eccentricity": 0.00039209,
        "meta_inclination": 51.6312,
        "meta_ra_of_asc_node": 88.9976,
        "meta_arg_of_pericenter": 289.9814,
        "meta_mean_anomaly": 70.0754,
        "meta_ephemeris_type": 0,
        "meta_classification_type": "U",
        "meta_norad_cat_id": 66908,
        "meta_element_set_no": 999,
        "meta_rev_at_epoch": 328,
        "meta_bstar": 0.0010206619,
        "meta_mean_motion_dot": 0.00064549,
        "meta_mean_motion_ddot": 0,
        "tle_line1": "1 66908U 98067XU  25357.47806396  .00064549  00000+0  10207-2 0  9993",
        "tle_line2": "2 66908  51.6312  88.9976 0003920 289.9814  70.0754 15.52842233  3282"
      },
      "geometry": {
        "type": "Point",
        "coordinates": [
          -93.97976952040297,
          -4.9281180090089345
        ]
      }
    }
  ]
}